1 37136U 97051XG  20009.79013806  .00000312  00000-0  13119-3 0  9991
2 37136  86.1766 199.7086 0086842  58.6058 302.3588 14.20376204550486
1 37136U 97051XG  20013.80562846  .00000294  00000-0  12321-3 0  9994
2 37136  86.1767 197.9681 0086597  46.0266 314.8020 14.20378546551051
1 37136U 97051XG  20019.79361731  .00000314  00000-0  13255-3 0  9998
2 37136  86.1770 195.3729 0086116  27.1294 333.4354 14.20381902551909
1 37136U 97051XG  20020.21629783 +.00000316 +00000-0 +13360-3 0  9990
2 37136 086.1770 195.1897 0086044 025.8354 334.7092 14.20382175338803
1 37136U 97051XG  20027.19051383 +.00000283 +00000-0 +11903-3 0  9993
2 37136 086.1773 192.1667 0085247 003.7350 356.4455 14.20385778339798
1 37136U 97051XG  20027.19051383  .00000283  00000-0  11903-3 0  9993
2 37136  86.1773 192.1667 0085247   3.7350 356.4455 14.20385778552953
1 37136U 97051XG  20028.74033641  .00000295  00000-0  12430-3 0  9991
2 37136  86.1775 191.4954 0085094 358.7416   1.3544 14.20386651553173
1 37136U 97051XG  20030.14926555  .00000306  00000-0  12962-3 0  9996
2 37136  86.1778 190.8849 0084988 354.2243   5.7955 14.20387459553375
1 37136U 97051XG  20032.68533624 +.00000320 +00000-0 +13585-3 0  9996
2 37136 086.1782 189.7861 0084760 346.0707 013.8142 14.20388943340576
1 37136U 97051XG  20032.68533624  .00000320  00000-0  13585-3 0  9996
2 37136  86.1782 189.7861 0084760 346.0707  13.8142 14.20388943553730
1 37136U 97051XG  20040.71621705  .00000321  00000-0  13634-3 0  9993
2 37136  86.1790 186.3065 0084104 320.1185  39.3841 14.20393841554871
1 37136U 97051XG  20042.68871427  .00000327  00000-0  13927-3 0  9990
2 37136  86.1791 185.4520 0084064 313.6740  45.7500 14.20394768555151
1 37136U 97051XG  20043.18183841 +.00000327 +00000-0 +13942-3 0  9999
2 37136 086.1791 185.2383 0084041 312.0712 047.3347 14.20395048342066
1 37136U 97051XG  20050.64915033 +.00000310 +00000-0 +13148-3 0  9994
2 37136 086.1789 182.0006 0083646 287.8565 071.3512 14.20399048343128
1 37136U 97051XG  20051.63539933  .00000297  00000-0  12582-3 0  9990
2 37136  86.1804 181.5777 0083813 284.5513  74.6390 14.20399477556423
1 37136U 97051XG  20052.62164892 +.00000294 +00000-0 +12453-3 0  9992
2 37136 086.1813 181.1517 0083945 281.3993 077.7774 14.20400065343402
1 37136U 97051XG  20054.10102314  .00000295  00000-0  12476-3 0  9994
2 37136  86.1800 180.5082 0083757 276.4747  82.6909 14.20400814556774
1 37136U 97051XG  20055.08727298 +.00000310 +00000-0 +13178-3 0  9994
2 37136 086.1802 180.0812 0083830 273.2816 085.8784 14.20401506343753
1 37136U 97051XG  20059.03227487  .00000312  00000-0  13246-3 0  9996
2 37136  86.1808 178.3732 0083971 260.5058  98.6632 14.20403741557476
1 37136U 97051XG  20064.59754937  .00000297  00000-0  12552-3 0  9999
2 37136  86.1811 175.9631 0084423 242.4245 116.8349 14.20406866558268
1 37136U 97051XG  20065.02022863 +.00000293 +00000-0 +12353-3 0  9999
2 37136 086.1810 175.7800 0084474 241.0456 118.2244 14.20407069345167
1 37136U 97051XG  20073.54426568 +.00000288 +00000-0 +12125-3 0  9996
2 37136 086.1812 172.0894 0085374 213.6090 145.9666 14.20411549346378
1 37136U 97051XG  20074.03739189  .00000285  00000-0  12001-3 0  9997
2 37136  86.1809 171.8755 0085446 212.0291 147.5689 14.20411778559602
1 37136U 97051XG  20075.51677032  .00000286  00000-0  12035-3 0  9997
2 37136  86.1809 171.2348 0085621 207.3052 152.3623 14.20412617559819
1 37136U 97051XG  20085.52017701 +.00000289 +00000-0 +12129-3 0  9997
2 37136 086.1804 166.9027 0086767 175.6409 184.5556 14.20417959348074
1 37136U 97051XG  20085.52017701  .00000289  00000-0  12129-3 0  9997
2 37136  86.1804 166.9027 0086767 175.6409 184.5556 14.20417959561239
1 37136U 97051XG  20086.50642665 +.00000283 +00000-0 +11859-3 0  9992
2 37136 086.1802 166.4753 0086878 172.5024 187.7487 14.20418478348216
1 37136U 97051XG  20087.49267589 +.00000277 +00000-0 +11583-3 0  9996
2 37136 086.1801 166.0482 0086983 169.4055 190.8993 14.20418962348356
1 37136U 97051XG  20087.49267589  .00000277  00000-0  11583-3 0  9996
2 37136  86.1801 166.0482 0086983 169.4055 190.8993 14.20418962561511
1 37136U 97051XG  20088.47892475 +.00000270 +00000-0 +11225-3 0  9999
2 37136 086.1800 165.6209 0087087 166.2967 194.0615 14.20419418348499
1 37136U 97051XG  20090.52186719  .00000265  00000-0  11003-3 0  9993
2 37136  86.1799 164.7362 0087274 159.9010 200.5651 14.20420481561944
1 37136U 97051XG  20091.93079150  .00000265  00000-0  10998-3 0  9991
2 37136  86.1797 164.1260 0087409 155.5010 205.0370 14.20421281562145
1 37136U 97051XG  20092.49436108 +.00000256 +00000-0 +10620-3 0  9995
2 37136 086.1796 163.8815 0087463 153.7133 206.8534 14.20421506349067
1 37136U 97051XG  20093.90328385 +.00000251 +00000-0 +10384-3 0  9991
2 37136 086.1793 163.2710 0087606 149.3012 211.3343 14.20422181349269
1 37136U 97051XG  20094.46685269 +.00000250 +00000-0 +10327-3 0  9996
2 37136 086.1792 163.0266 0087656 147.5347 213.1276 14.20422412349349
1 37136U 97051XG  20095.45309760  .00000256  00000-0  10576-3 0  9997
2 37136  86.1790 162.5993 0087740 144.4586 216.2490 14.20422872562645
1 37136U 97051XG  20097.42558526 +.00000275 +00000-0 +11447-3 0  9991
2 37136 086.1787 161.7446 0087880 138.2990 222.4942 14.20423949349763
1 37136U 97051XG  20097.42558526  .00000275  00000-0  11447-3 0  9991
2 37136  86.1787 161.7446 0087880 138.2990 222.4942 14.20423949562928
1 37136U 97051XG  20098.41182809 +.00000263 +00000-0 +10904-3 0  9992
2 37136 086.1786 161.3170 0087937 135.2154 225.6177 14.20424382349907
1 37136U 97051XG  20099.46851590  .00000258  00000-0  10682-3 0  9995
2 37136  86.1785 160.8591 0088003 131.9314 228.9420 14.20424895563211
1 37136U 97051XG  20100.45475700 +.00000257 +00000-0 +10613-3 0  9995
2 37136 086.1783 160.4317 0088058 128.8623 232.0464 14.20425395350190
1 37136U 97051XG  20101.44099734 +.00000256 +00000-0 +10588-3 0  9994
2 37136 086.1782 160.0044 0088107 125.7900 235.1519 14.20425882563496
1 37136U 97051XG  20102.92035645  .00000247  00000-0  10182-3 0  9999
2 37136  86.1780 159.3633 0088166 121.1915 239.7953 14.20426526563702
1 37136U 97051XG  20104.39971355  .00000243  00000-0  99861-4 0  9997
2 37136  86.1778 158.7222 0088207 116.6063 244.4196 14.20427255563910
1 37136U 97051XG  20107.42886764 +.00000236 +00000-0 +96705-4 0  9999
2 37136 086.1773 157.4093 0088265 107.2131 253.8742 14.20428637351183
1 37136U 97051XG  20107.42886764  .00000236  00000-0  96705-4 0  9999
2 37136  86.1773 157.4093 0088265 107.2131 253.8742 14.20428637564347
1 37136U 97051XG  20108.41510221 +.00000235 +00000-0 +96353-4 0  9999
2 37136 086.1772 156.9818 0088273 104.1563 256.9452 14.20429024351324
1 37136U 97051XG  20109.40133591  .00000244  00000-0  10061-3 0  9991
2 37136  86.1770 156.5543 0088268 101.0928 260.0202 14.20429467564627
1 37136U 97051XG  20109.89445245 +.00000247 +00000-0 +10191-3 0  9993
2 37136 086.1769 156.3405 0088268 099.5664 261.5512 14.20429674351532
1 37136U 97051XG  20110.38756873 +.00000253 +00000-0 +10423-3 0  9996
2 37136 086.1769 156.1267 0088262 098.0382 263.0832 14.20429911351605
1 37136U 97051XG  20112.85314678 +.00000257 +00000-0 +10608-3 0  9992
2 37136 086.1765 155.0579 0088217 090.4019 270.7278 14.20431069351952
1 37136U 97051XG  20112.85314678  .00000257  00000-0  10608-3 0  9992
2 37136  86.1765 155.0579 0088217  90.4019 270.7278 14.20431069565117
1 37136U 97051XG  20114.40293568  .00000259  00000-0  10735-3 0  9992
2 37136  86.1763 154.3860 0088164  85.5943 275.5311 14.20431858565333
1 37136U 97051XG  20115.38916382 +.00000260 +00000-0 +10768-3 0  9994
2 37136 086.1762 153.9584 0088127 082.5344 278.5846 14.20432351352318
1 37136U 97051XG  20116.37539100  .00000263  00000-0  10882-3 0  9993
2 37136  86.1761 153.5308 0088091  79.4749 281.6348 14.20432873565611
1 37136U 97051XG  20118.84095511 +.00000256 +00000-0 +10601-3 0  9991
2 37136 086.1757 152.4617 0087955 071.8210 289.2529 14.20434077352802
1 37136U 97051XG  20118.84095511  .00000256  00000-0  10601-3 0  9991
2 37136  86.1757 152.4617 0087955  71.8210 289.2529 14.20434077565965
1 37136U 97051XG  20119.82717914 +.00000261 +00000-0 +10826-3 0  9993
2 37136 086.1756 152.0340 0087895 068.7605 292.2943 14.20434615352943
1 37136U 97051XG  20120.39073536  .00000262  00000-0  10871-3 0  9993
2 37136  86.1755 151.7896 0087851  67.0072 294.0353 14.20434899566188
1 37136U 97051XG  20122.36317991  .00000281  00000-0  11699-3 0  9998
2 37136  86.1752 150.9343 0087705  60.8701 300.1230 14.20435978566464
1 37136U 97051XG  20124.33562090  .00000302  00000-0  12692-3 0  9997
2 37136  86.1750 150.0789 0087549  54.7186 306.2152 14.20437161566749
1 37136U 97051XG  20125.81494929 +.00000303 +00000-0 +12703-3 0  9990
2 37136 086.1748 149.4372 0087422 050.1096 310.7736 14.20438024353792
1 37136U 97051XG  20125.81494929  .00000303  00000-0  12703-3 0  9990
2 37136  86.1748 149.4372 0087422  50.1096 310.7736 14.20438024566956
1 37136U 97051XG  20127.36471991  .00000300  00000-0  12568-3 0  9992
2 37136  86.1747 148.7651 0087265  45.2610 315.5637 14.20438925567177
1 37136U 97051XG  20127.78738431 +.00000296 +00000-0 +12411-3 0  9994
2 37136 086.1747 148.5818 0087224 043.9421 316.8659 14.20439150354072
1 37136U 97051XG  20129.33715248  .00000290  00000-0  12163-3 0  9996
2 37136  86.1746 147.9097 0087063  39.0865 321.6569 14.20440039567452
1 37136U 97051XG  20136.31108955  .00000280  00000-0  11716-3 0  9995
2 37136  86.1740 144.8844 0086254  17.1525 343.2545 14.20443638568445
1 37136U 97051XG  20140.25593094  .00000286  00000-0  12016-3 0  9995
2 37136  86.1739 143.1732 0085765   4.6562 355.5403 14.20445810569005
1 37136U 97051XG  20140.74903559 +.00000286 +00000-0 +12008-3 0  9991
2 37136 086.1739 142.9591 0085682 003.1041 357.0660 14.20446081355915
1 37136U 97051XG  20142.29879245  .00000281  00000-0  11796-3 0  9995
2 37136  86.1739 142.2864 0085458 358.1820   1.9044 14.20446922569293
1 37136U 97051XG  20149.27268943  .00000291  00000-0  12254-3 0  9998
2 37136  86.1741 139.2611 0084609 335.8671  23.8562 14.20450860570280
